{
    "links": {
        "self": "http://www.neowsapp.com/rest/v1/neo/3675275?api_key=iIulBulltgU6a56xZRHN4H3l9WmuAYTsLGpBGhQ2"
    },
    "id": "3675275",
    "neo_reference_id": "3675275",
    "name": "(2014 NS64)",
    "designation": "2014 NS64",
    "nasa_jpl_url": "http://ssd.jpl.nasa.gov/sbdb.cgi?sstr=3675275",
    "absolute_magnitude_h": 24.2,
    "estimated_diameter": {
        "kilometers": {
            "estimated_diameter_min": 0.0384197891,
            "estimated_diameter_max": 0.0859092601
        },
        "meters": {
            "estimated_diameter_min": 38.4197891064,
            "estimated_diameter_max": 85.9092601232
        },
        "miles": {
            "estimated_diameter_min": 0.0238729428,
            "estimated_diameter_max": 0.0533815229
        },
        "feet": {
            "estimated_diameter_min": 126.0491808919,
            "estimated_diameter_max": 281.8545369825
        }
    },
    "is_potentially_hazardous_asteroid": false,
    "close_approach_data": [
        {
            "close_approach_date": "2011-06-22",
            "close_approach_date_full": "2011-Jun-22 01:12",
            "epoch_date_close_approach": 1308705120000,
            "relative_velocity": {
                "kilometers_per_second": "12.290873132",
                "kilometers_per_hour": "44247.1432753566",
                "miles_per_hour": "27493.4541090681"
            },
            "miss_distance": {
                "astronomical": "0.4466248305",
                "lunar": "173.7370590645",
                "kilometers": "66814123.331911035",
                "miles": "41516371.098740883"
            },
            "orbiting_body": "Earth"
        },
        {
            "close_approach_date": "2014-07-16",
            "close_approach_date_full": "2014-Jul-16 14:16",
            "epoch_date_close_approach": 1405520160000,
            "relative_velocity": {
                "kilometers_per_second": "5.4608307178",
                "kilometers_per_hour": "19658.990584157",
                "miles_per_hour": "12215.3322326947"
            },
            "miss_distance": {
                "astronomical": "0.146817479",
                "lunar": "57.111999331",
                "kilometers": "21963582.13716973",
                "miles": "13647537.095333074"
            },
            "orbiting_body": "Earth"
        },
        {
            "close_approach_date": "2017-08-06",
            "close_approach_date_full": "2017-Aug-06 11:53",
            "epoch_date_close_approach": 1502020380000,
            "relative_velocity": {
                "kilometers_per_second": "14.9458962301",
                "kilometers_per_hour": "53805.2264284248",
                "miles_per_hour": "33432.475277151"
            },
            "miss_distance": {
                "astronomical": "0.4829364168",
                "lunar": "187.8622661352",
                "kilometers": "72246259.298712216",
                "miles": "44891743.8703959408"
            },
            "orbiting_body": "Earth"
        }
    ],
    "orbital_data": {
        "orbit_id": "4",
        "orbit_determination_date": "2017-04-06 08:39:37",
        "first_observation_date": "2014-07-01",
        "last_observation_date": "2014-08-05",
        "data_arc_in_days": 35,
        "observations_used": 13,
        "orbit_uncertainty": "8",
        "minimum_orbit_intersection": ".144212",
        "jupiter_tisserand_invariant": "3.594",
        "epoch_osculation": "2456855.5",
        "eccentricity": ".4542755504678903",
        "semi_major_axis": "2.110728520101171",
        "inclination": "6.096119813350698",
        "ascending_node_longitude": "135.4637351340962",
        "orbital_period": "1120.074717558431",
        "perihelion_distance": "1.151876159743936",
        "perihelion_argument": "151.6308303125658",
        "aphelion_distance": "3.069580880458406",
        "perihelion_time": "2456849.759123380634",
        "mean_anomaly": "1.84515867608979",
        "mean_motion": ".3214071296821498",
        "equinox": "J2000",
        "orbit_class": {
            "orbit_class_type": "AMO",
            "orbit_class_description": "Near-Earth asteroid orbits similar to that of 1221 Amor",
            "orbit_class_range": "1.017 AU < q (perihelion) < 1.3 AU"
        }
    },
    "is_sentry_object": false
}